[{"OBJECT_NAME":"PROTOMETHEE","OBJECT_ID":"2023-174BT","EPOCH":"2026-03-09T23:28:08.029344","MEAN_MOTION":15.30202663,"ECCENTRICITY":0.00088339,"INCLINATION":97.3826,"RA_OF_ASC_NODE":147.9552,"ARG_OF_PERICENTER":148.5993,"MEAN_ANOMALY":211.5776,"EPHEMERIS_TYPE":0,"CLASSIFICATION_TYPE":"U","NORAD_CAT_ID":58321,"ELEMENT_SET_NO":999,"REV_AT_EPOCH":12979,"BSTAR":0.00015715731,"MEAN_MOTION_DOT":4.52e-5,"MEAN_MOTION_DDOT":0},{"OBJECT_NAME":"STARLINK-32872","OBJECT_ID":"2025-032Q","EPOCH":"2026-03-09T02:05:11.912352","MEAN_MOTION":15.27581564,"ECCENTRICITY":0.00018528,"INCLINATION":43.0033,"RA_OF_ASC_NODE":339.8177,"ARG_OF_PERICENTER":257.3444,"MEAN_ANOMALY":102.72,"EPHEMERIS_TYPE":0,"CLASSIFICATION_TYPE":"U","NORAD_CAT_ID":63019,"ELEMENT_SET_NO":999,"REV_AT_EPOCH":6052,"BSTAR":0.0013464023,"MEAN_MOTION_DOT":0.00036976,"MEAN_MOTION_DDOT":0}]
